CTC2_L_00451001-01
1 10000U 22765LJ  26075.70046296  .00000000  00000+0  00000-0 0  9996
2 10000  65.0000   0.0000 0000000   0.0000   0.0000 15.90815360    13
CTC2_L_00451001-02
1 10001U 25740MR  26075.70046296  .00000000  00000+0  00000-0 0  9993
2 10001  65.0000   0.0000 0000000   0.0000  90.0000 15.90815360    13
CTC2_L_00451001-03
1 10002U 22640BI  26075.70046296  .00000000  00000+0  00000-0 0  9990
2 10002  65.0000   0.0000 0000000   0.0000 180.0000 15.90815360    14
CTC2_L_00451001-04
1 10003U 24454UV  26075.70046296  .00000000  00000+0  00000-0 0  9996
2 10003  65.0000   0.0000 0000000   0.0000 270.0000 15.90815360    15
CTC2_L_00451002-01
1 10004U 23566JV  26075.70046296  .00000000  00000+0  00000-0 0  9990
2 10004  65.0000  12.0000 0000000   0.0000  12.0000 15.90815360    13
CTC2_L_00451002-02
1 10005U 25129BG  26075.70046296  .00000000  00000+0  00000-0 0  9998
2 10005  65.0000  12.0000 0000000   0.0000 102.0000 15.90815360    14
CTC2_L_00451002-03
1 10006U 26037UF  26075.70046296  .00000000  00000+0  00000-0 0  9998
2 10006  65.0000  12.0000 0000000   0.0000 192.0000 15.90815360    14
CTC2_L_00451002-04
1 10007U 26907ON  26075.70046296  .00000000  00000+0  00000-0 0  9995
2 10007  65.0000  12.0000 0000000   0.0000 282.0000 15.90815360    15
CTC2_L_00451003-01
1 10008U 26964UN  26075.70046296  .00000000  00000+0  00000-0 0  9999
2 10008  65.0000  24.0000 0000000   0.0000  24.0000 15.90815360    13
CTC2_L_00451003-02
1 10009U 22767HQ  26075.70046296  .00000000  00000+0  00000-0 0  9997
2 10009  65.0000  24.0000 0000000   0.0000 114.0000 15.90815360    14
CTC2_L_00451003-03
1 10010U 24016UY  26075.70046296  .00000000  00000+0  00000-0 0  9998
2 10010  65.0000  24.0000 0000000   0.0000 204.0000 15.90815360    16
CTC2_L_00451003-04
1 10011U 23725VZ  26075.70046296  .00000000  00000+0  00000-0 0  9995
2 10011  65.0000  24.0000 0000000   0.0000 294.0000 15.90815360    16
CTC2_L_00451004-01
1 10012U 25834OD  26075.70046296  .00000000  00000+0  00000-0 0  9999
2 10012  65.0000  36.0000 0000000   0.0000  36.0000 15.90815360    14
CTC2_L_00451004-02
1 10013U 25916XE  26075.70046296  .00000000  00000+0  00000-0 0  9991
2 10013  65.0000  36.0000 0000000   0.0000 126.0000 15.90815360    15
CTC2_L_00451004-03
1 10014U 23914GX  26075.70046296  .00000000  00000+0  00000-0 0  9998
2 10014  65.0000  36.0000 0000000   0.0000 216.0000 15.90815360    16
CTC2_L_00451004-04
1 10015U 25741JT  26075.70046296  .00000000  00000+0  00000-0 0  9999
2 10015  65.0000  36.0000 0000000   0.0000 306.0000 15.90815360    17
CTC2_L_00451005-01
1 10016U 23298YO  26075.70046296  .00000000  00000+0  00000-0 0  9995
2 10016  65.0000  48.0000 0000000   0.0000  48.0000 15.90815360    14
CTC2_L_00451005-02
1 10017U 22291MD  26075.70046296  .00000000  00000+0  00000-0 0  9998
2 10017  65.0000  48.0000 0000000   0.0000 138.0000 15.90815360    15
CTC2_L_00451005-03
1 10018U 26648SM  26075.70046296  .00000000  00000+0  00000-0 0  9999
2 10018  65.0000  48.0000 0000000   0.0000 228.0000 15.90815360    16
CTC2_L_00451005-04
1 10019U 24742MA  26075.70046296  .00000000  00000+0  00000-0 0  9993
2 10019  65.0000  48.0000 0000000   0.0000 318.0000 15.90815360    17
CTC2_L_00451006-01
1 10020U 24411XT  26075.70046296  .00000000  00000+0  00000-0 0  9998
2 10020  65.0000  60.0000 0000000   0.0000  60.0000 15.90815360    17
CTC2_L_00451006-02
1 10021U 26796SZ  26075.70046296  .00000000  00000+0  00000-0 0  9997
2 10021  65.0000  60.0000 0000000   0.0000 150.0000 15.90815360    18
CTC2_L_00451006-03
1 10022U 26805AW  26075.70046296  .00000000  00000+0  00000-0 0  9999
2 10022  65.0000  60.0000 0000000   0.0000 240.0000 15.90815360    19
CTC2_L_00451006-04
1 10023U 22700HF  26075.70046296  .00000000  00000+0  00000-0 0  9990
2 10023  65.0000  60.0000 0000000   0.0000 330.0000 15.90815360    10
CTC2_L_00451007-01
1 10024U 24462XM  26075.70046296  .00000000  00000+0  00000-0 0  9998
2 10024  65.0000  72.0000 0000000   0.0000  72.0000 15.90815360    17
CTC2_L_00451007-02
1 10025U 22414UB  26075.70046296  .00000000  00000+0  00000-0 0  9994
2 10025  65.0000  72.0000 0000000   0.0000 162.0000 15.90815360    18
CTC2_L_00451007-03
1 10026U 26824IS  26075.70046296  .00000000  00000+0  00000-0 0  9994
2 10026  65.0000  72.0000 0000000   0.0000 252.0000 15.90815360    19
CTC2_L_00451007-04
1 10027U 24775GK  26075.70046296  .00000000  00000+0  00000-0 0  9998
2 10027  65.0000  72.0000 0000000   0.0000 342.0000 15.90815360    10
CTC2_L_00451008-01
1 10028U 22762SP  26075.70046296  .00000000  00000+0  00000-0 0  9993
2 10028  65.0000  84.0000 0000000   0.0000  84.0000 15.90815360    17
CTC2_L_00451008-02
1 10029U 26175OQ  26075.70046296  .00000000  00000+0  00000-0 0  9996
2 10029  65.0000  84.0000 0000000   0.0000 174.0000 15.90815360    18
CTC2_L_00451008-03
1 10030U 22192SP  26075.70046296  .00000000  00000+0  00000-0 0  9993
2 10030  65.0000  84.0000 0000000   0.0000 264.0000 15.90815360    10
CTC2_L_00451008-04
1 10031U 26913BD  26075.70046296  .00000000  00000+0  00000-0 0  9999
2 10031  65.0000  84.0000 0000000   0.0000 354.0000 15.90815360    11
CTC2_L_00451009-01
1 10032U 23909QF  26075.70046296  .00000000  00000+0  00000-0 0  9992
2 10032  65.0000  96.0000 0000000   0.0000  96.0000 15.90815360    18
CTC2_L_00451009-02
1 10033U 23821C   26075.70046296  .00000000  00000+0  00000-0 0  9996
2 10033  65.0000  96.0000 0000000   0.0000 186.0000 15.90815360    19
CTC2_L_00451009-03
1 10034U 24906NK  26075.70046296  .00000000  00000+0  00000-0 0  9992
2 10034  65.0000  96.0000 0000000   0.0000 276.0000 15.90815360    10
CTC2_L_00451009-04
1 10035U 25075RQ  26075.70046296  .00000000  00000+0  00000-0 0  9991
2 10035  65.0000  96.0000 0000000   0.0000   6.0000 15.90815360    12
CTC2_L_00451010-01
1 10036U 25212WD  26075.70046296  .00000000  00000+0  00000-0 0  9995
2 10036  65.0000 108.0000 0000000   0.0000 108.0000 15.90815360    10
CTC2_L_00451010-02
1 10037U 26696SG  26075.70046296  .00000000  00000+0  00000-0 0  9993
2 10037  65.0000 108.0000 0000000   0.0000 198.0000 15.90815360    10
CTC2_L_00451010-03
1 10038U 22679UA  26075.70046296  .00000000  00000+0  00000-0 0  9991
2 10038  65.0000 108.0000 0000000   0.0000 288.0000 15.90815360    11
CTC2_L_00451010-04
1 10039U 22568A   26075.70046296  .00000000  00000+0  00000-0 0  9999
2 10039  65.0000 108.0000 0000000   0.0000  18.0000 15.90815360    13
CTC2_L_00451011-01
1 10040U 23054BF  26075.70046296  .00000000  00000+0  00000-0 0  9992
2 10040  65.0000 120.0000 0000000   0.0000 120.0000 15.90815360    13
CTC2_L_00451011-02
1 10041U 24958EF  26075.70046296  .00000000  00000+0  00000-0 0  9997
2 10041  65.0000 120.0000 0000000   0.0000 210.0000 15.90815360    14
CTC2_L_00451011-03
1 10042U 26594YE  26075.70046296  .00000000  00000+0  00000-0 0  9996
2 10042  65.0000 120.0000 0000000   0.0000 300.0000 15.90815360    15
CTC2_L_00451011-04
1 10043U 26475NM  26075.70046296  .00000000  00000+0  00000-0 0  9995
2 10043  65.0000 120.0000 0000000   0.0000  30.0000 15.90815360    16
CTC2_L_00451012-01
1 10044U 23426LU  26075.70046296  .00000000  00000+0  00000-0 0  9999
2 10044  65.0000 132.0000 0000000   0.0000 132.0000 15.90815360    13
CTC2_L_00451012-02
1 10045U 26378SP  26075.70046296  .00000000  00000+0  00000-0 0  9999
2 10045  65.0000 132.0000 0000000   0.0000 222.0000 15.90815360    14
CTC2_L_00451012-03
1 10046U 23228FC  26075.70046296  .00000000  00000+0  00000-0 0  9991
2 10046  65.0000 132.0000 0000000   0.0000 312.0000 15.90815360    15
CTC2_L_00451012-04
1 10047U 24106DQ  26075.70046296  .00000000  00000+0  00000-0 0  9998
2 10047  65.0000 132.0000 0000000   0.0000  42.0000 15.90815360    16
CTC2_L_00451013-01
1 10048U 24177TW  26075.70046296  .00000000  00000+0  00000-0 0  9997
2 10048  65.0000 144.0000 0000000   0.0000 144.0000 15.90815360    13
CTC2_L_00451013-02
1 10049U 25851HT  26075.70046296  .00000000  00000+0  00000-0 0  9998
2 10049  65.0000 144.0000 0000000   0.0000 234.0000 15.90815360    14
CTC2_L_00451013-03
1 10050U 26301EJ  26075.70046296  .00000000  00000+0  00000-0 0  9991
2 10050  65.0000 144.0000 0000000   0.0000 324.0000 15.90815360    16
CTC2_L_00451013-04
1 10051U 22223WT  26075.70046296  .00000000  00000+0  00000-0 0  9991
2 10051  65.0000 144.0000 0000000   0.0000  54.0000 15.90815360    17
CTC2_L_00451014-01
1 10052U 22659ZK  26075.70046296  .00000000  00000+0  00000-0 0  9995
2 10052  65.0000 156.0000 0000000   0.0000 156.0000 15.90815360    14
CTC2_L_00451014-02
1 10053U 25146KV  26075.70046296  .00000000  00000+0  00000-0 0  9990
2 10053  65.0000 156.0000 0000000   0.0000 246.0000 15.90815360    15
CTC2_L_00451014-03
1 10054U 25794ER  26075.70046296  .00000000  00000+0  00000-0 0  9990
2 10054  65.0000 156.0000 0000000   0.0000 336.0000 15.90815360    16
CTC2_L_00451014-04
1 10055U 22784TT  26075.70046296  .00000000  00000+0  00000-0 0  9997
2 10055  65.0000 156.0000 0000000   0.0000  66.0000 15.90815360    17
CTC2_L_00451015-01
1 10056U 23946GY  26075.70046296  .00000000  00000+0  00000-0 0  9999
2 10056  65.0000 168.0000 0000000   0.0000 168.0000 15.90815360    14
CTC2_L_00451015-02
1 10057U 22812CN  26075.70046296  .00000000  00000+0  00000-0 0  9991
2 10057  65.0000 168.0000 0000000   0.0000 258.0000 15.90815360    15
CTC2_L_00451015-03
1 10058U 24930HY  26075.70046296  .00000000  00000+0  00000-0 0  9995
2 10058  65.0000 168.0000 0000000   0.0000 348.0000 15.90815360    16
CTC2_L_00451015-04
1 10059U 26188FB  26075.70046296  .00000000  00000+0  00000-0 0  9993
2 10059  65.0000 168.0000 0000000   0.0000  78.0000 15.90815360    17
CTC2_L_00451016-01
1 10060U 26261DK  26075.70046296  .00000000  00000+0  00000-0 0  9997
2 10060  65.0000 180.0000 0000000   0.0000 180.0000 15.90815360    17
CTC2_L_00451016-02
1 10061U 26063UD  26075.70046296  .00000000  00000+0  00000-0 0  9998
2 10061  65.0000 180.0000 0000000   0.0000 270.0000 15.90815360    18
